STARLINK-34172          
1 64173U 25113D   25222.61977455  .00019261  00000+0  66135-3 0  9992
2 64173  53.1626 351.2307 0000895  82.3439 277.7663 15.30170109 12714
STARLINK-34202          
1 64174U 25113E   25222.57872929  .00022597  00000+0  77323-3 0  9995
2 64174  53.1596 351.6874 0000915  49.5045 310.6035 15.30179993 12748
STARLINK-34231          
1 64175U 25113F   25222.59456291  .00032287  00000+0  10982-2 0  9992
2 64175  53.1595 351.7834 0001282  79.7817 280.3328 15.30179442 12742
STARLINK-34191          
1 64176U 25113G   25222.60605359  .00022930  00000+0  78420-3 0  9992
2 64176  53.1605 351.1441 0000921  93.7836 266.3270 15.30188270 12759
STARLINK-34164          
1 64177U 25113H   25222.60194633  .00021906  00000+0  74984-3 0  9994
2 64177  53.1594 351.8333 0000909  97.6401 262.4703 15.30187573 12743
STARLINK-34227          
1 64178U 25113J   25222.58189280  .00002114  00000+0  83607-4 0  9997
2 64178  53.1593 351.7052 0001342  96.2770 263.8383 15.30151853 12747
STARLINK-34194          
1 64179U 25113K   25222.61133254  .00025784  00000+0  87998-3 0  9996
2 64179  53.1608 351.1792 0000761  99.6122 260.4965 15.30187313 12752
STARLINK-34000          
1 64180U 25113L   25222.63243814  .00023254  00000+0  79554-3 0  9993
2 64180  53.1607 351.3083 0001406  94.9897 265.1264 15.30168834 12719
STARLINK-33917          
1 64181U 25113M   25222.59350392  .00022433  00000+0  76824-3 0  9994
2 64181  53.1584 351.7735 0000923  62.6181 297.4913 15.30158059 12743
STARLINK-34131          
1 64182U 25113N   25222.64509959  .00020817  00000+0  71402-3 0  9997
2 64182  53.1595 351.3839 0001335  84.0485 276.0668 15.30154080 12717
STARLINK-34188          
1 64183U 25113P   25222.59561573  .00006988  00000+0  24799-3 0  9992
2 64183  53.1593 351.7913 0001098  70.4101 289.7019 15.30180338 12742
STARLINK-34197          
1 64184U 25113Q   25222.59878422  .00016433  00000+0  56610-3 0  9990
2 64184  53.1595 351.8116 0001502  84.2998 275.8174 15.30177392 12742
STARLINK-34063          
1 64185U 25113R   25222.58505887  .00021552  00000+0  73806-3 0  9996
2 64185  53.1591 351.7217 0000780  82.8811 277.2279 15.30183038 12741
STARLINK-34200          
1 64186U 25113S   25222.62610572  .00024428  00000+0  83477-3 0  9990
2 64186  53.1615 351.2688 0001474  93.4794 266.6375 15.30177273 12759
STARLINK-33934          
1 64187U 25113T   25222.58928449  .00005761  00000+0  20660-3 0  9995
2 64187  53.1599 351.7536 0001520 109.7729 250.3436 15.30181513 12704
STARLINK-33929          
1 64188U 25113U   25222.58717182  .00006010  00000+0  21501-3 0  9999
2 64188  53.1593 351.7322 0001287  78.6862 281.4284 15.30181986 12748
STARLINK-33872          
1 64189U 25113V   25222.61238825  .00018575  00000+0  63789-3 0  9999
2 64189  53.1621 351.1798 0000866  87.8764 272.2336 15.30190919 12716
