[{"OBJECT_NAME":"STARLINK-34172","OBJECT_ID":"2025-113D","EPOCH":"2025-08-10T14:52:28.521120","MEAN_MOTION":15.30170109,"ECCENTRICITY":8.95e-5,"INCLINATION":53.1626,"RA_OF_ASC_NODE":351.2307,"ARG_OF_PERICENTER":82.3439,"MEAN_ANOMALY":277.7663,"EPHEMERIS_TYPE":0,"CLASSIFICATION_TYPE":"U","NORAD_CAT_ID":64173,"ELEMENT_SET_NO":999,"REV_AT_EPOCH":1271,"BSTAR":0.00066135,"MEAN_MOTION_DOT":0.00019261,"MEAN_MOTION_DDOT":0},{"OBJECT_NAME":"STARLINK-34202","OBJECT_ID":"2025-113E","EPOCH":"2025-08-10T13:53:22.210656","MEAN_MOTION":15.30179993,"ECCENTRICITY":9.15e-5,"INCLINATION":53.1596,"RA_OF_ASC_NODE":351.6874,"ARG_OF_PERICENTER":49.5045,"MEAN_ANOMALY":310.6035,"EPHEMERIS_TYPE":0,"CLASSIFICATION_TYPE":"U","NORAD_CAT_ID":64174,"ELEMENT_SET_NO":999,"REV_AT_EPOCH":1274,"BSTAR":0.00077323,"MEAN_MOTION_DOT":0.00022597,"MEAN_MOTION_DDOT":0},{"OBJECT_NAME":"STARLINK-34231","OBJECT_ID":"2025-113F","EPOCH":"2025-08-10T14:16:10.235424","MEAN_MOTION":15.30179442,"ECCENTRICITY":0.0001282,"INCLINATION":53.1595,"RA_OF_ASC_NODE":351.7834,"ARG_OF_PERICENTER":79.7817,"MEAN_ANOMALY":280.3328,"EPHEMERIS_TYPE":0,"CLASSIFICATION_TYPE":"U","NORAD_CAT_ID":64175,"ELEMENT_SET_NO":999,"REV_AT_EPOCH":1274,"BSTAR":0.0010982,"MEAN_MOTION_DOT":0.00032287,"MEAN_MOTION_DDOT":0},{"OBJECT_NAME":"STARLINK-34191","OBJECT_ID":"2025-113G","EPOCH":"2025-08-10T14:32:43.030176","MEAN_MOTION":15.3018827,"ECCENTRICITY":9.21e-5,"INCLINATION":53.1605,"RA_OF_ASC_NODE":351.1441,"ARG_OF_PERICENTER":93.7836,"MEAN_ANOMALY":266.327,"EPHEMERIS_TYPE":0,"CLASSIFICATION_TYPE":"U","NORAD_CAT_ID":64176,"ELEMENT_SET_NO":999,"REV_AT_EPOCH":1275,"BSTAR":0.0007842,"MEAN_MOTION_DOT":0.0002293,"MEAN_MOTION_DDOT":0},{"OBJECT_NAME":"STARLINK-34164","OBJECT_ID":"2025-113H","EPOCH":"2025-08-10T14:26:48.162912","MEAN_MOTION":15.30187573,"ECCENTRICITY":9.09e-5,"INCLINATION":53.1594,"RA_OF_ASC_NODE":351.8333,"ARG_OF_PERICENTER":97.6401,"MEAN_ANOMALY":262.4703,"EPHEMERIS_TYPE":0,"CLASSIFICATION_TYPE":"U","NORAD_CAT_ID":64177,"ELEMENT_SET_NO":999,"REV_AT_EPOCH":1274,"BSTAR":0.00074984,"MEAN_MOTION_DOT":0.00021906,"MEAN_MOTION_DDOT":0},{"OBJECT_NAME":"STARLINK-34227","OBJECT_ID":"2025-113J","EPOCH":"2025-08-10T13:57:55.537920","MEAN_MOTION":15.30151853,"ECCENTRICITY":0.0001342,"INCLINATION":53.1593,"RA_OF_ASC_NODE":351.7052,"ARG_OF_PERICENTER":96.277,"MEAN_ANOMALY":263.8383,"EPHEMERIS_TYPE":0,"CLASSIFICATION_TYPE":"U","NORAD_CAT_ID":64178,"ELEMENT_SET_NO":999,"REV_AT_EPOCH":1274,"BSTAR":8.3607e-5,"MEAN_MOTION_DOT":2.114e-5,"MEAN_MOTION_DDOT":0},{"OBJECT_NAME":"STARLINK-34194","OBJECT_ID":"2025-113K","EPOCH":"2025-08-10T14:40:19.131456","MEAN_MOTION":15.30187313,"ECCENTRICITY":7.61e-5,"INCLINATION":53.1608,"RA_OF_ASC_NODE":351.1792,"ARG_OF_PERICENTER":99.6122,"MEAN_ANOMALY":260.4965,"EPHEMERIS_TYPE":0,"CLASSIFICATION_TYPE":"U","NORAD_CAT_ID":64179,"ELEMENT_SET_NO":999,"REV_AT_EPOCH":1275,"BSTAR":0.00087998,"MEAN_MOTION_DOT":0.00025784,"MEAN_MOTION_DDOT":0},{"OBJECT_NAME":"STARLINK-34000","OBJECT_ID":"2025-113L","EPOCH":"2025-08-10T15:10:42.655296","MEAN_MOTION":15.30168834,"ECCENTRICITY":0.0001406,"INCLINATION":53.1607,"RA_OF_ASC_NODE":351.3083,"ARG_OF_PERICENTER":94.9897,"MEAN_ANOMALY":265.1264,"EPHEMERIS_TYPE":0,"CLASSIFICATION_TYPE":"U","NORAD_CAT_ID":64180,"ELEMENT_SET_NO":999,"REV_AT_EPOCH":1271,"BSTAR":0.00079554,"MEAN_MOTION_DOT":0.00023254,"MEAN_MOTION_DDOT":0},{"OBJECT_NAME":"STARLINK-33917","OBJECT_ID":"2025-113M","EPOCH":"2025-08-10T14:14:38.738688","MEAN_MOTION":15.30158059,"ECCENTRICITY":9.23e-5,"INCLINATION":53.1584,"RA_OF_ASC_NODE":351.7735,"ARG_OF_PERICENTER":62.6181,"MEAN_ANOMALY":297.4913,"EPHEMERIS_TYPE":0,"CLASSIFICATION_TYPE":"U","NORAD_CAT_ID":64181,"ELEMENT_SET_NO":999,"REV_AT_EPOCH":1274,"BSTAR":0.00076824,"MEAN_MOTION_DOT":0.00022433,"MEAN_MOTION_DDOT":0},{"OBJECT_NAME":"STARLINK-34131","OBJECT_ID":"2025-113N","EPOCH":"2025-08-10T15:28:56.604576","MEAN_MOTION":15.3015408,"ECCENTRICITY":0.0001335,"INCLINATION":53.1595,"RA_OF_ASC_NODE":351.3839,"ARG_OF_PERICENTER":84.0485,"MEAN_ANOMALY":276.0668,"EPHEMERIS_TYPE":0,"CLASSIFICATION_TYPE":"U","NORAD_CAT_ID":64182,"ELEMENT_SET_NO":999,"REV_AT_EPOCH":1271,"BSTAR":0.00071402,"MEAN_MOTION_DOT":0.00020817,"MEAN_MOTION_DDOT":0},{"OBJECT_NAME":"STARLINK-34188","OBJECT_ID":"2025-113P","EPOCH":"2025-08-10T14:17:41.199072","MEAN_MOTION":15.30180338,"ECCENTRICITY":0.0001098,"INCLINATION":53.1593,"RA_OF_ASC_NODE":351.7913,"ARG_OF_PERICENTER":70.4101,"MEAN_ANOMALY":289.7019,"EPHEMERIS_TYPE":0,"CLASSIFICATION_TYPE":"U","NORAD_CAT_ID":64183,"ELEMENT_SET_NO":999,"REV_AT_EPOCH":1274,"BSTAR":0.00024799,"MEAN_MOTION_DOT":6.988e-5,"MEAN_MOTION_DDOT":0},{"OBJECT_NAME":"STARLINK-34197","OBJECT_ID":"2025-113Q","EPOCH":"2025-08-10T14:22:14.956608","MEAN_MOTION":15.30177392,"ECCENTRICITY":0.0001502,"INCLINATION":53.1595,"RA_OF_ASC_NODE":351.8116,"ARG_OF_PERICENTER":84.2998,"MEAN_ANOMALY":275.8174,"EPHEMERIS_TYPE":0,"CLASSIFICATION_TYPE":"U","NORAD_CAT_ID":64184,"ELEMENT_SET_NO":999,"REV_AT_EPOCH":1274,"BSTAR":0.0005661,"MEAN_MOTION_DOT":0.00016433,"MEAN_MOTION_DDOT":0},{"OBJECT_NAME":"STARLINK-34063","OBJECT_ID":"2025-113R","EPOCH":"2025-08-10T14:02:29.086368","MEAN_MOTION":15.30183038,"ECCENTRICITY":7.8e-5,"INCLINATION":53.1591,"RA_OF_ASC_NODE":351.7217,"ARG_OF_PERICENTER":82.8811,"MEAN_ANOMALY":277.2279,"EPHEMERIS_TYPE":0,"CLASSIFICATION_TYPE":"U","NORAD_CAT_ID":64185,"ELEMENT_SET_NO":999,"REV_AT_EPOCH":1274,"BSTAR":0.00073806,"MEAN_MOTION_DOT":0.00021552,"MEAN_MOTION_DDOT":0},{"OBJECT_NAME":"STARLINK-34200","OBJECT_ID":"2025-113S","EPOCH":"2025-08-10T15:01:35.534208","MEAN_MOTION":15.30177273,"ECCENTRICITY":0.0001474,"INCLINATION":53.1615,"RA_OF_ASC_NODE":351.2688,"ARG_OF_PERICENTER":93.4794,"MEAN_ANOMALY":266.6375,"EPHEMERIS_TYPE":0,"CLASSIFICATION_TYPE":"U","NORAD_CAT_ID":64186,"ELEMENT_SET_NO":999,"REV_AT_EPOCH":1275,"BSTAR":0.00083477,"MEAN_MOTION_DOT":0.00024428,"MEAN_MOTION_DDOT":0},{"OBJECT_NAME":"STARLINK-33934","OBJECT_ID":"2025-113T","EPOCH":"2025-08-10T14:08:34.179936","MEAN_MOTION":15.30181513,"ECCENTRICITY":0.000152,"INCLINATION":53.1599,"RA_OF_ASC_NODE":351.7536,"ARG_OF_PERICENTER":109.7729,"MEAN_ANOMALY":250.3436,"EPHEMERIS_TYPE":0,"CLASSIFICATION_TYPE":"U","NORAD_CAT_ID":64187,"ELEMENT_SET_NO":999,"REV_AT_EPOCH":1270,"BSTAR":0.0002066,"MEAN_MOTION_DOT":5.761e-5,"MEAN_MOTION_DDOT":0},{"OBJECT_NAME":"STARLINK-33929","OBJECT_ID":"2025-113U","EPOCH":"2025-08-10T14:05:31.645248","MEAN_MOTION":15.30181986,"ECCENTRICITY":0.0001287,"INCLINATION":53.1593,"RA_OF_ASC_NODE":351.7322,"ARG_OF_PERICENTER":78.6862,"MEAN_ANOMALY":281.4284,"EPHEMERIS_TYPE":0,"CLASSIFICATION_TYPE":"U","NORAD_CAT_ID":64188,"ELEMENT_SET_NO":999,"REV_AT_EPOCH":1274,"BSTAR":0.00021501,"MEAN_MOTION_DOT":6.01e-5,"MEAN_MOTION_DDOT":0},{"OBJECT_NAME":"STARLINK-33872","OBJECT_ID":"2025-113V","EPOCH":"2025-08-10T14:41:50.344800","MEAN_MOTION":15.30190919,"ECCENTRICITY":8.66e-5,"INCLINATION":53.1621,"RA_OF_ASC_NODE":351.1798,"ARG_OF_PERICENTER":87.8764,"MEAN_ANOMALY":272.2336,"EPHEMERIS_TYPE":0,"CLASSIFICATION_TYPE":"U","NORAD_CAT_ID":64189,"ELEMENT_SET_NO":999,"REV_AT_EPOCH":1271,"BSTAR":0.00063789,"MEAN_MOTION_DOT":0.00018575,"MEAN_MOTION_DDOT":0}]
